KUIPER-00071            
1 64818U 25151C   25267.33336806 -.00315481  00000+0 -43126-1 0  9995
2 64818  51.9281 318.7023 0007991  40.4760 336.6433 14.80087200  5403
KUIPER-00072            
1 64819U 25151D   25267.27602143  .00053262  00000+0  14383-2 0  9997
2 64819  51.8771 309.8377 0007502  39.0311 321.1216 15.37213462 10750
KUIPER-00073            
1 64820U 25151E   25267.33336806 -.00033239  00000+0 -42322-2 0  9994
2 64820  51.8986 318.7061 0013422  67.1542 126.3945 14.81032481  5560
KUIPER-00074            
1 64821U 25151F   25267.33336806 -.01206320  00000+0 -61955-1 0  9991
2 64821  51.8822 310.5538 0012653  67.1468  89.2192 15.18878406  5300
KUIPER-00075            
1 64822U 25151G   25267.31297717  .00051266  00000+0  13543-2 0  9992
2 64822  51.8792 309.3573 0006311  27.2135 332.9181 15.37916678 10761
KUIPER-00076            
1 64823U 25151H   25267.33336806 -.00765330  00000+0 -45335-1 0  9997
2 64823  51.8819 311.6137 0006070  52.6814   4.6778 15.13628920  4977
KUIPER-00077            
1 64824U 25151J   25267.33336806 -.00083969  00000+0 -73582-2 0  9995
2 64824  51.9201 314.4344 0006604  20.2089 111.2701 14.96587815  5804
KUIPER-00078            
1 64825U 25151K   25267.33336806 -.00010736  00000+0 -72731-3 0  9994
2 64825  51.8866 312.8791 0009679  84.8332  80.3403 15.05067753  5339
